[{"OBJECT_NAME":"STARLINK-4720","OBJECT_ID":"2022-111AD","EPOCH":"2026-03-09T17:15:59.769792","MEAN_MOTION":15.52966516,"ECCENTRICITY":0.00033906,"INCLINATION":53.211,"RA_OF_ASC_NODE":239.7837,"ARG_OF_PERICENTER":149.7852,"MEAN_ANOMALY":210.3356,"EPHEMERIS_TYPE":0,"CLASSIFICATION_TYPE":"U","NORAD_CAT_ID":53800,"ELEMENT_SET_NO":999,"REV_AT_EPOCH":19416,"BSTAR":0.00052142465,"MEAN_MOTION_DOT":0.00032713,"MEAN_MOTION_DDOT":0},{"OBJECT_NAME":"SITRO-AIS 44","OBJECT_ID":"2024-199P","EPOCH":"2026-03-09T22:00:49.428864","MEAN_MOTION":15.55686039,"ECCENTRICITY":0.000449,"INCLINATION":97.3075,"RA_OF_ASC_NODE":305.0705,"ARG_OF_PERICENTER":282.4122,"MEAN_ANOMALY":77.663,"EPHEMERIS_TYPE":0,"CLASSIFICATION_TYPE":"U","NORAD_CAT_ID":61748,"ELEMENT_SET_NO":999,"REV_AT_EPOCH":12229,"BSTAR":0.00083685162,"MEAN_MOTION_DOT":0.00057776,"MEAN_MOTION_DDOT":0}]
